HIMAWARI-8              
1 40267U 14060A   24183.71020941 -.00000273  00000+0  00000+0 0  9993
2 40267   0.0407 198.1082 0001165 297.0809 181.3858  1.00272328 35589
